      2.10          N: GNSS NAV DATA                        RINEX VERSION / TYPE
fic2rin                                 02/18/2021 00:17:22 PGM / RUN BY / DATE
                                                            END OF HEADER
 7 21  2 17  9 59 44.0 6.174156442285e-05 1.330136001343e-11 0.000000000000e+00
    2.000000000000e+00 6.359375000000e+01 4.714839249123e-09-1.001799120680e+00
    3.261491656303e-06 1.444319554139e-02 9.037554264069e-06 5.153604217529e+03
    2.951840000000e+05 3.017485141754e-07 1.456951140709e+00 2.440065145493e-07
    9.517086037634e-01 1.995937500000e+02-2.352417640940e+00-8.212842097839e-09
    1.214336296267e-11 1.000000000000e+00 2.145000000000e+03 0.000000000000e+00
    2.400000000000e+00 0.000000000000e+00-1.117587089539e-08 2.000000000000e+00
    2.940000000000e+05 4.000000000000e+00
12 21  2 17  9 59 44.0-2.310145646334e-06-5.343281372916e-12 0.000000000000e+00
    2.000000000000e+00 1.368750000000e+01 4.361610250003e-09-1.670375630238e+00
    7.711350917816e-07 8.347005350515e-03 4.593282938004e-06 5.153550151825e+03
    2.951840000000e+05 1.955777406693e-07 2.566781006423e+00 7.636845111847e-08
    9.748288551347e-01 2.971875000000e+02 1.182501904179e+00-8.054978379324e-09
   -1.125046862718e-10 1.000000000000e+00 2.145000000000e+03 0.000000000000e+00
    2.400000000000e+00 0.000000000000e+00-1.257285475731e-08 2.000000000000e+00
    2.941200000000e+05 4.000000000000e+00
 7 21  2 17 11 59 44.0 6.183702498674e-05 1.330136001343e-11 0.000000000000e+00
    3.000000000000e+00 6.496875000000e+01 4.846987610775e-09 4.847841191473e-02
    3.470107913017e-06 1.444407063536e-02 8.540228009224e-06 5.153606370926e+03
    3.023840000000e+05 0.000000000000e+00 1.456890643195e+00 1.918524503708e-07
    9.517077099205e-01 2.085625000000e+02-2.352470714145e+00-8.456423672561e-09
    2.392956819114e-11 1.000000000000e+00 2.145000000000e+03 0.000000000000e+00
    2.400000000000e+00 0.000000000000e+00-1.117587089539e-08 3.000000000000e+00
    2.952000000000e+05 4.000000000000e+00
 5 21  2 17 11 59 44.0-3.393786028028e-05-1.023181539495e-12 0.000000000000e+00
    4.000000000000e+01-1.753125000000e+01 5.018066165455e-09-2.808654563942e+00
   -1.106411218643e-06 5.988657940179e-03 5.435198545456e-06 5.153814491272e+03
    3.023840000000e+05 5.587935447693e-08-6.813322525888e-01-1.341104507446e-07
    9.553006542782e-01 2.723437500000e+02 8.825282406150e-01-8.269987335310e-09
    1.557207721095e-10 1.000000000000e+00 2.145000000000e+03 0.000000000000e+00
    2.400000000000e+00 0.000000000000e+00-1.117587089539e-08 4.000000000000e+01
    2.952000000000e+05 4.000000000000e+00
12 21  2 17 11 59 44.0-2.348329871893e-06-5.343281372916e-12 0.000000000000e+00
    3.000000000000e+00 1.681250000000e+01 4.503759028213e-09-6.201873897742e-01
    9.145587682724e-07 8.346990332939e-03 4.868954420090e-06 5.153549146652e+03
    3.023840000000e+05-6.891787052155e-08 2.566722025955e+00 1.229345798492e-07
    9.748267982719e-01 2.934062500000e+02 1.182570086402e+00-8.317846471693e-09
   -1.207193141583e-10 1.000000000000e+00 2.145000000000e+03 0.000000000000e+00
    2.400000000000e+00 0.000000000000e+00-1.257285475731e-08 3.000000000000e+00
    2.952000000000e+05 4.000000000000e+00
29 21  2 17 11 59 44.0-2.965903840959e-04-7.048583938740e-12 0.000000000000e+00
    2.000000000000e+01-3.618750000000e+01 3.817301863088e-09 2.973440179924e+00
   -1.844018697739e-06 1.512618735433e-03 8.337199687958e-06 5.153683719635e+03
    3.023840000000e+05-1.490116119385e-08-2.669117434998e+00-7.078051567078e-08
    9.848306826767e-01 2.323125000000e+02 2.148089343423e+00-7.715678531838e-09
   -1.807218135032e-10 1.000000000000e+00 2.145000000000e+03 0.000000000000e+00
    2.400000000000e+00 0.000000000000e+00-1.024454832077e-08 2.000000000000e+01
    2.952000000000e+05 4.000000000000e+00
27 21  2 17 11 59 44.0-7.804529741406e-05-7.389644451905e-12 0.000000000000e+00
    1.500000000000e+01-3.225000000000e+01 3.898019511016e-09 2.857925071388e+00
   -1.655891537666e-06 9.078500093892e-03 8.538365364075e-06 5.153681940079e+03
    3.023840000000e+05-4.470348358154e-08-2.741424212077e+00-1.098960638046e-07
    9.769286224156e-01 2.238125000000e+02 5.750289109823e-01-7.736750838156e-09
   -1.278624688422e-10 1.000000000000e+00 2.145000000000e+03 0.000000000000e+00
    2.400000000000e+00 0.000000000000e+00 1.862645149231e-09 1.500000000000e+01
    2.952000000000e+05 4.000000000000e+00
16 21  2 17 11 59 44.0-2.814531326294e-04-5.684341886081e-12 0.000000000000e+00
    4.500000000000e+01 4.406250000000e+00 4.308750905342e-09-2.511562768533e+00
    1.899898052216e-07 1.219022762962e-02 4.749745130539e-06 5.153649917603e+03
    3.023840000000e+05 9.313225746155e-08 2.585512033960e+00-1.434236764908e-07
    9.749614467148e-01 2.963125000000e+02 6.537821258155e-01-7.989975671701e-09
   -8.321775206769e-11 1.000000000000e+00 2.145000000000e+03 0.000000000000e+00
    2.400000000000e+00 0.000000000000e+00-1.024454832077e-08 4.500000000000e+01
    2.952000000000e+05 4.000000000000e+00
 2 21  2 17 12  0  0.0-5.777692422271e-04-3.865352482535e-12 0.000000000000e+00
    4.600000000000e+01-1.500000000000e+00 4.465543150654e-09 9.202834103437e-01
   -1.527369022369e-07 2.037509181537e-02 9.141862392426e-06 5.153618667603e+03
    3.024000000000e+05-3.147870302200e-07-1.766466466544e+00-1.937150955200e-07
    9.618296825355e-01 2.054062500000e+02-1.544619346133e+00-8.386063598924e-09
    2.989410235221e-10 1.000000000000e+00 2.145000000000e+03 0.000000000000e+00
    2.400000000000e+00 0.000000000000e+00-1.769512891769e-08 4.600000000000e+01
    2.952000000000e+05 4.000000000000e+00
 1 21  2 17 12  0  0.0 7.593738846481e-04-7.844391802792e-12 0.000000000000e+00
    6.800000000000e+01 2.215625000000e+01 3.998737992059e-09 6.737258290536e-01
    1.057982444763e-06 1.039848022629e-02 8.495524525642e-06 5.153690616608e+03
    3.024000000000e+05-1.303851604462e-07-1.684674383187e+00 1.061707735062e-07
    9.830300484959e-01 2.288125000000e+02 8.198429865054e-01-7.970331996320e-09
    2.614394614315e-10 1.000000000000e+00 2.145000000000e+03 0.000000000000e+00
    2.400000000000e+00 0.000000000000e+00 4.656612873077e-09 6.800000000000e+01
    2.952000000000e+05 4.000000000000e+00
 3 21  2 17 12  0  0.0-8.540228009224e-05-1.011812855722e-11 0.000000000000e+00
    4.700000000000e+01-2.425000000000e+01 4.771270171125e-09-4.631497902421e-01
   -1.186504960060e-06 3.271770547144e-03 5.388632416725e-06 5.153648118973e+03
    3.024000000000e+05 3.166496753693e-08-6.458103077687e-01 4.656612873077e-08
    9.683828796625e-01 2.837500000000e+02 8.470132431928e-01-8.262487022892e-09
    8.214627886510e-11 1.000000000000e+00 2.145000000000e+03 0.000000000000e+00
    2.400000000000e+00 0.000000000000e+00 1.862645149231e-09 4.700000000000e+01
    2.952000000000e+05 4.000000000000e+00
10 21  2 17 12  0  0.0-6.339605897665e-05-8.185452315956e-12 0.000000000000e+00
    1.200000000000e+01-2.125000000000e+01 4.646622121891e-09-1.371917453252e+00
   -1.102685928345e-06 6.484960787930e-03 5.085021257401e-06 5.153668445587e+03
    3.024000000000e+05 8.195638656616e-08-6.487372469674e-01-1.862645149231e-09
    9.682790124789e-01 2.821875000000e+02-2.589725681292e+00-8.168554538799e-09
    1.814361289716e-10 1.000000000000e+00 2.145000000000e+03 0.000000000000e+00
    2.400000000000e+00 0.000000000000e+00 2.328306436539e-09 1.200000000000e+01
    2.952000000000e+05 4.000000000000e+00
 8 21  2 17 12  0  0.0-1.064501702785e-05-1.364242052659e-12 0.000000000000e+00
    2.600000000000e+01-3.168750000000e+01 4.165887811663e-09 2.891957489112e+00
   -1.575797796249e-06 6.206740392372e-03 8.480623364449e-06 5.153559003830e+03
    3.024000000000e+05-7.078051567078e-08-2.757846516429e+00 2.607703208923e-08
    9.683900304061e-01 2.207500000000e+02-2.729960497813e-02-7.901400553620e-09
   -1.714357124141e-10 1.000000000000e+00 2.145000000000e+03 0.000000000000e+00
    2.400000000000e+00 0.000000000000e+00 5.122274160385e-09 2.600000000000e+01
    2.952000000000e+05 4.000000000000e+00
 9 21  2 17 12  0  0.0-3.237095661461e-04-3.524291969370e-12 0.000000000000e+00
    9.100000000000e+01-3.062500000000e+01 4.827343935394e-09-2.977347515618e+00
   -1.484528183937e-06 1.945404452272e-03 9.579584002495e-06 5.153567031860e+03
    3.024000000000e+05 7.078051567078e-08 3.839984598086e-01 9.126961231232e-08
    9.535190146257e-01 1.926875000000e+02 1.818586568710e+00-8.110694985859e-09
   -1.960795960737e-10 1.000000000000e+00 2.145000000000e+03 0.000000000000e+00
    2.400000000000e+00 0.000000000000e+00 1.396983861923e-09 9.100000000000e+01
    2.952000000000e+05 4.000000000000e+00
 6 21  2 17 12  0  0.0-2.544373273849e-06 1.250555214938e-12 0.000000000000e+00
    8.300000000000e+01 1.059375000000e+01 3.926234972018e-09 1.006349313780e+00
    6.482005119324e-07 2.312554512173e-03 9.024515748024e-06 5.153711130142e+03
    3.024000000000e+05 1.862645149231e-09-1.692932089074e+00-4.842877388000e-08
    9.825190161008e-01 2.136562500000e+02-1.071099282190e+00-7.831040479983e-09
    3.928735076157e-10 1.000000000000e+00 2.145000000000e+03 0.000000000000e+00
    2.400000000000e+00 0.000000000000e+00 3.725290298462e-09 8.300000000000e+01
    2.952000000000e+05 4.000000000000e+00
 4 21  2 17 12  0  0.0-1.808288507164e-04-2.614797267597e-12 0.000000000000e+00
    2.150000000000e+02-2.646875000000e+01 4.633407285726e-09 2.383659178161e+00
   -1.329928636551e-06 1.128942938522e-03 9.819865226746e-06 5.153592054367e+03
    3.024000000000e+05-5.401670932770e-08 4.340176770241e-01 5.401670932770e-08
    9.606778481342e-01 1.924062500000e+02-3.009418309415e+00-8.003190507866e-09
   -1.675069773380e-10 1.000000000000e+00 2.145000000000e+03 0.000000000000e+00
    2.400000000000e+00 0.000000000000e+00-4.190951585770e-09 7.270000000000e+02
    2.952000000000e+05 4.000000000000e+00
